[
    {
        "Altitude(m)": 568063.7292032348,
        "Argument of Periapsis(deg)": 0.033114955553567506,
        "Eccentricity": 0.0,
        "Inclination(deg)": 53.0,
        "Latitude(deg)": -43.7206066343753,
        "Longitude(deg)": 6.794475353563445,
        "Mean Anomaly(deg)": -120.45103566211203,
        "RAAN(deg)": 244.95071684264008,
        "Satellite Name": "Starlink Shell 1 1089",
        "Satellite Number": 1089,
        "Semi-Major Axis(m)": 6931778.249405717,
        "Time(s)": 950
    },
    {
        "Altitude(m)": 568206.3924837135,
        "Argument of Periapsis(deg)": 0.03346353403307874,
        "Eccentricity": 0.0,
        "Inclination(deg)": 53.0,
        "Latitude(deg)": -44.06711005630412,
        "Longitude(deg)": 7.473933543773278,
        "Mean Anomaly(deg)": -119.82420445855529,
        "RAAN(deg)": 244.95019807256264,
        "Satellite Name": "Starlink Shell 1 1089",
        "Satellite Number": 1089,
        "Semi-Major Axis(m)": 6931778.249405717,
        "Time(s)": 960
    },
    {
        "Altitude(m)": 568347.0181816114,
        "Argument of Periapsis(deg)": 0.03381211251258998,
        "Eccentricity": 0.0,
        "Inclination(deg)": 53.0,
        "Latitude(deg)": -44.408987412745084,
        "Longitude(deg)": 8.16177157771589,
        "Mean Anomaly(deg)": -119.19737325499862,
        "RAAN(deg)": 244.94967930248518,
        "Satellite Name": "Starlink Shell 1 1089",
        "Satellite Number": 1089,
        "Semi-Major Axis(m)": 6931778.249405717,
        "Time(s)": 970
    },
    {
        "Altitude(m)": 568485.5509532896,
        "Argument of Periapsis(deg)": 0.034160690992101214,
        "Eccentricity": 0.0,
        "Inclination(deg)": 53.0,
        "Latitude(deg)": -44.74613075369877,
        "Longitude(deg)": 8.858072414173106,
        "Mean Anomaly(deg)": -118.57054205144195,
        "RAAN(deg)": 244.9491605324077,
        "Satellite Name": "Starlink Shell 1 1089",
        "Satellite Number": 1089,
        "Semi-Major Axis(m)": 6931778.249405717,
        "Time(s)": 980
    },
    {
        "Altitude(m)": 568621.9362391741,
        "Argument of Periapsis(deg)": 0.034509269471612446,
        "Eccentricity": 0.0,
        "Inclination(deg)": 53.0,
        "Latitude(deg)": -45.07843048143114,
        "Longitude(deg)": 9.562914294208051,
        "Mean Anomaly(deg)": -117.94371084788523,
        "RAAN(deg)": 244.94864176233023,
        "Satellite Name": "Starlink Shell 1 1089",
        "Satellite Number": 1089,
        "Semi-Major Axis(m)": 6931778.249405717,
        "Time(s)": 990
    }
]